start=new Date('2022-02-12T00:00:00.000Z').valueOf();
sats=[{"REV_AT_EPOCH":"2494","COUNTRY_CODE":"US","BSTAR":"-0.00942320000000","MEAN_ELEMENT_THEORY":"SGP4","GP_ID":"195758447","ELEMENT_SET_NO":"999","DECAY_DATE":null,"PERIOD":"93.574","RA_OF_ASC_NODE":"64.3946","TLE_LINE2":"2 49168  70.0002  64.3946 0003506 288.4652 134.0228 15.38880891 24940","SITE":"AFWTR","MEAN_MOTION_DOT":"-0.00347773","MEAN_MOTION_DDOT":"0.0000000000000","INCLINATION":"70.0002","ARG_OF_PERICENTER":"288.4652","TIME_SYSTEM":"UTC","CENTER_NAME":"EARTH","SEMIMAJOR_AXIS":"6827.554","REF_FRAME":"TEME","MEAN_MOTION":"15.38880891","FILE":"3297841","OBJECT_TYPE":"PAYLOAD","OBJECT_ID":"2021-082AQ","APOAPSIS":"451.813","RCS_SIZE":"LARGE","EPHEMERIS_TYPE":"0","CLASSIFICATION_TYPE":"U","NORAD_CAT_ID":"49168","TLE_LINE1":"1 49168U 21082AQ  22042.91668981 -.00347773  00000-0 -94232-2 0  9994","LAUNCH_DATE":"2021-09-14","OBJECT_NAME":"STARLINK-3101","PERIAPSIS":"447.026","ECCENTRICITY":"0.00035060","MEAN_ANOMALY":"134.0228","EPOCH":"2022-02-11T22:00:01.999584"},{"MEAN_ANOMALY":"86.3576","EPOCH":"2022-02-11T14:00:01.000224","OBJECT_NAME":"STARLINK-3046","PERIAPSIS":"445.256","ECCENTRICITY":"0.00034880","RCS_SIZE":"LARGE","EPHEMERIS_TYPE":"0","NORAD_CAT_ID":"49169","CLASSIFICATION_TYPE":"U","LAUNCH_DATE":"2021-09-14","TLE_LINE1":"1 49169U 21082AR  22042.58334491 -.00661320  00000-0 -18062-1 0  9997","OBJECT_ID":"2021-082AR","OBJECT_TYPE":"PAYLOAD","FILE":"3297735","APOAPSIS":"450.018","REF_FRAME":"TEME","MEAN_MOTION":"15.39483766","TIME_SYSTEM":"UTC","ARG_OF_PERICENTER":"277.4128","SEMIMAJOR_AXIS":"6825.772","CENTER_NAME":"EARTH","TLE_LINE2":"2 49169  69.9999  65.2920 0003488 277.4128  86.3576 15.39483766  3673","MEAN_MOTION_DOT":"-0.00661320","SITE":"AFWTR","MEAN_MOTION_DDOT":"0.0000000000000","INCLINATION":"69.9999","MEAN_ELEMENT_THEORY":"SGP4","ELEMENT_SET_NO":"999","GP_ID":"195754522","RA_OF_ASC_NODE":"65.2920","PERIOD":"93.538","DECAY_DATE":null,"COUNTRY_CODE":"US","REV_AT_EPOCH":"367","BSTAR":"-0.01806200000000"},{"RA_OF_ASC_NODE":"83.9738","PERIOD":"96.108","DECAY_DATE":null,"ELEMENT_SET_NO":"999","GP_ID":"195754772","MEAN_ELEMENT_THEORY":"SGP4","BSTAR":"0.00267220000000","COUNTRY_CODE":"US","REV_AT_EPOCH":"358","CENTER_NAME":"EARTH","SEMIMAJOR_AXIS":"6950.230","TIME_SYSTEM":"UTC","ARG_OF_PERICENTER":"287.8892","INCLINATION":"70.0004","MEAN_MOTION_DDOT":"0.0000000000000","MEAN_MOTION_DOT":"0.00031928","SITE":"AFWTR","TLE_LINE2":"2 49170  70.0004  83.9738 0003506 287.8892 196.8309 14.98318061  3583","APOAPSIS":"574.532","OBJECT_ID":"2021-082AS","OBJECT_TYPE":"PAYLOAD","FILE":"3297735","MEAN_MOTION":"14.98318061","REF_FRAME":"TEME","MEAN_ANOMALY":"196.8309","EPOCH":"2022-02-11T14:00:01.000224","PERIAPSIS":"569.658","ECCENTRICITY":"0.00035060","OBJECT_NAME":"STARLINK-3074","TLE_LINE1":"1 49170U 21082AS  22042.58334491  .00031928  00000-0  26722-2 0  9995","LAUNCH_DATE":"2021-09-14","NORAD_CAT_ID":"49170","CLASSIFICATION_TYPE":"U","RCS_SIZE":"LARGE","EPHEMERIS_TYPE":"0"},{"TLE_LINE1":"1 49171U 21082AT  22042.58334491  .00027380  00000-0  22940-2 0  9991","LAUNCH_DATE":"2021-09-14","CLASSIFICATION_TYPE":"U","NORAD_CAT_ID":"49171","RCS_SIZE":"LARGE","EPHEMERIS_TYPE":"0","PERIAPSIS":"569.809","ECCENTRICITY":"0.00032750","OBJECT_NAME":"STARLINK-3107","MEAN_ANOMALY":"99.6533","EPOCH":"2022-02-11T14:00:01.000224","MEAN_MOTION":"14.98321283","REF_FRAME":"TEME","APOAPSIS":"574.361","FILE":"3297584","OBJECT_ID":"2021-082AT","OBJECT_TYPE":"PAYLOAD","INCLINATION":"70.0007","MEAN_MOTION_DDOT":"0.0000000000000","SITE":"AFWTR","MEAN_MOTION_DOT":"0.00027380","TLE_LINE2":"2 49171  70.0007  83.9762 0003275 282.1567  99.6533 14.98321283 24384","SEMIMAJOR_AXIS":"6950.220","CENTER_NAME":"EARTH","ARG_OF_PERICENTER":"282.1567","TIME_SYSTEM":"UTC","BSTAR":"0.00229400000000","COUNTRY_CODE":"US","REV_AT_EPOCH":"2438","PERIOD":"96.108","DECAY_DATE":null,"RA_OF_ASC_NODE":"83.9762","GP_ID":"195727868","ELEMENT_SET_NO":"999","MEAN_ELEMENT_THEORY":"SGP4"},{"BSTAR":"-0.01893500000000","REV_AT_EPOCH":"2373","COUNTRY_CODE":"US","DECAY_DATE":null,"PERIOD":"93.640","RA_OF_ASC_NODE":"64.4002","GP_ID":"195762135","ELEMENT_SET_NO":"999","MEAN_ELEMENT_THEORY":"SGP4","INCLINATION":"69.9999","MEAN_MOTION_DDOT":"0.0000000000000","SITE":"AFWTR","MEAN_MOTION_DOT":"-0.00656586","TLE_LINE2":"2 49172  69.9999  64.4002 0003419 276.7945  49.5139 15.37807813 23738","SEMIMAJOR_AXIS":"6830.730","CENTER_NAME":"EARTH","ARG_OF_PERICENTER":"276.7945","TIME_SYSTEM":"UTC","MEAN_MOTION":"15.37807813","REF_FRAME":"TEME","APOAPSIS":"454.931","FILE":"3297990","OBJECT_TYPE":"PAYLOAD","OBJECT_ID":"2021-082AU","LAUNCH_DATE":"2021-09-14","TLE_LINE1":"1 49172U 21082AU  22042.91668981 -.00656586  00000-0 -18935-1 0  9999","CLASSIFICATION_TYPE":"U","NORAD_CAT_ID":"49172","RCS_SIZE":"LARGE","EPHEMERIS_TYPE":"0","PERIAPSIS":"450.260","ECCENTRICITY":"0.00034190","OBJECT_NAME":"STARLINK-3091","MEAN_ANOMALY":"49.5139","EPOCH":"2022-02-11T22:00:01.999584"},{"REF_FRAME":"TEME","MEAN_MOTION":"15.38238751","OBJECT_ID":"2021-082AV","OBJECT_TYPE":"PAYLOAD","FILE":"3297735","APOAPSIS":"453.574","RCS_SIZE":"LARGE","EPHEMERIS_TYPE":"0","NORAD_CAT_ID":"49173","CLASSIFICATION_TYPE":"U","TLE_LINE1":"1 49173U 21082AV  22042.58334491 -.00662049  00000-0 -18838-1 0  9992","LAUNCH_DATE":"2021-09-14","MEAN_ANOMALY":"264.7806","EPOCH":"2022-02-11T14:00:01.000224","ECCENTRICITY":"0.00033020","PERIAPSIS":"449.064","OBJECT_NAME":"STARLINK-3045","REV_AT_EPOCH":"368","COUNTRY_CODE":"US","BSTAR":"-0.01883800000000","MEAN_ELEMENT_THEORY":"SGP4","ELEMENT_SET_NO":"999","GP_ID":"195754022","RA_OF_ASC_NODE":"65.1119","DECAY_DATE":null,"PERIOD":"93.614","TLE_LINE2":"2 49173  69.9997  65.1119 0003302 279.5260 264.7806 15.38238751  3680","MEAN_MOTION_DOT":"-0.00662049","SITE":"AFWTR","MEAN_MOTION_DDOT":"0.0000000000000","INCLINATION":"69.9997","TIME_SYSTEM":"UTC","ARG_OF_PERICENTER":"279.5260","CENTER_NAME":"EARTH","SEMIMAJOR_AXIS":"6829.454"},{"CLASSIFICATION_TYPE":"U","NORAD_CAT_ID":"49174","RCS_SIZE":"LARGE","EPHEMERIS_TYPE":"0","TLE_LINE1":"1 49174U 21082AW  22042.91668981 -.00658976  00000-0 -18082-1 0  9999","LAUNCH_DATE":"2021-09-14","PERIAPSIS":"445.723","ECCENTRICITY":"0.00034490","OBJECT_NAME":"STARLINK-3047","EPOCH":"2022-02-11T22:00:01.999584","MEAN_ANOMALY":"171.1320","REF_FRAME":"TEME","MEAN_MOTION":"15.39334735","FILE":"3297865","OBJECT_TYPE":"PAYLOAD","OBJECT_ID":"2021-082AW","APOAPSIS":"450.432","SITE":"AFWTR","MEAN_MOTION_DOT":"-0.00658976","TLE_LINE2":"2 49174  70.0000  64.3879 0003449 272.8932 171.1320 15.39334735 24907","INCLINATION":"70.0000","MEAN_MOTION_DDOT":"0.0000000000000","ARG_OF_PERICENTER":"272.8932","TIME_SYSTEM":"UTC","SEMIMAJOR_AXIS":"6826.212","CENTER_NAME":"EARTH","COUNTRY_CODE":"US","REV_AT_EPOCH":"2490","BSTAR":"-0.01808200000000","GP_ID":"195759499","ELEMENT_SET_NO":"999","MEAN_ELEMENT_THEORY":"SGP4","PERIOD":"93.547","DECAY_DATE":null,"RA_OF_ASC_NODE":"64.3879"},{"OBJECT_ID":"2021-082AX","OBJECT_TYPE":"PAYLOAD","FILE":"3297735","APOAPSIS":"452.112","REF_FRAME":"TEME","MEAN_MOTION":"15.38761523","EPOCH":"2022-02-11T14:00:01.000224","MEAN_ANOMALY":"44.5425","PERIAPSIS":"447.433","ECCENTRICITY":"0.00034270","OBJECT_NAME":"STARLINK-3087","RCS_SIZE":"LARGE","EPHEMERIS_TYPE":"0","NORAD_CAT_ID":"49175","CLASSIFICATION_TYPE":"U","TLE_LINE1":"1 49175U 21082AX  22042.58334491 -.00661586  00000-0 -18504-1 0  9999","LAUNCH_DATE":"2021-09-14","MEAN_ELEMENT_THEORY":"SGP4","ELEMENT_SET_NO":"999","GP_ID":"195755524","RA_OF_ASC_NODE":"65.2968","DECAY_DATE":null,"PERIOD":"93.582","COUNTRY_CODE":"US","REV_AT_EPOCH":"367","BSTAR":"-0.01850400000000","TIME_SYSTEM":"UTC","ARG_OF_PERICENTER":"277.3869","CENTER_NAME":"EARTH","SEMIMAJOR_AXIS":"6827.908","TLE_LINE2":"2 49175  69.9999  65.2968 0003427 277.3869  44.5425 15.38761523  3674","MEAN_MOTION_DOT":"-0.00661586","SITE":"AFWTR","MEAN_MOTION_DDOT":"0.0000000000000","INCLINATION":"69.9999"},{"FILE":"3297921","OBJECT_TYPE":"PAYLOAD","OBJECT_ID":"2021-082AY","APOAPSIS":"362.237","REF_FRAME":"TEME","MEAN_MOTION":"15.69752602","ECCENTRICITY":"0.00039030","PERIAPSIS":"356.977","OBJECT_NAME":"STARLINK-3069","EPOCH":"2022-02-11T22:00:01.999584","MEAN_ANOMALY":"274.3058","RCS_SIZE":"LARGE","EPHEMERIS_TYPE":"0","CLASSIFICATION_TYPE":"U","NORAD_CAT_ID":"49176","LAUNCH_DATE":"2021-09-14","TLE_LINE1":"1 49176U 21082AY  22042.91668981  .00010351  00000-0  88362-4 0  9999","MEAN_ELEMENT_THEORY":"SGP4","GP_ID":"195760698","ELEMENT_SET_NO":"999","DECAY_DATE":null,"PERIOD":"91.734","RA_OF_ASC_NODE":"62.9183","COUNTRY_CODE":"US","REV_AT_EPOCH":"2377","BSTAR":"0.00008836200000","ARG_OF_PERICENTER":"291.2843","TIME_SYSTEM":"UTC","SEMIMAJOR_AXIS":"6737.742","CENTER_NAME":"EARTH","TLE_LINE2":"2 49176  69.9999  62.9183 0003903 291.2843 274.3058 15.69752602 23774","SITE":"AFWTR","MEAN_MOTION_DOT":"0.00010351","MEAN_MOTION_DDOT":"0.0000000000000","INCLINATION":"69.9999"},{"BSTAR":"-0.00013947000000","REV_AT_EPOCH":"2497","COUNTRY_CODE":"US","RA_OF_ASC_NODE":"62.9233","PERIOD":"91.733","DECAY_DATE":null,"ELEMENT_SET_NO":"999","GP_ID":"195760704","MEAN_ELEMENT_THEORY":"SGP4","INCLINATION":"69.9993","MEAN_MOTION_DDOT":"0.0000000000000","MEAN_MOTION_DOT":"-0.00016844","SITE":"AFWTR","TLE_LINE2":"2 49177  69.9993  62.9233 0003973 291.7194 267.4814 15.69768004 24975","CENTER_NAME":"EARTH","SEMIMAJOR_AXIS":"6737.698","TIME_SYSTEM":"UTC","ARG_OF_PERICENTER":"291.7194","MEAN_MOTION":"15.69768004","REF_FRAME":"TEME","APOAPSIS":"362.240","OBJECT_ID":"2021-082AZ","OBJECT_TYPE":"PAYLOAD","FILE":"3297922","TLE_LINE1":"1 49177U 21082AZ  22042.91668981 -.00016844  00000-0 -13947-3 0  9991","LAUNCH_DATE":"2021-09-14","NORAD_CAT_ID":"49177","CLASSIFICATION_TYPE":"U","RCS_SIZE":"LARGE","EPHEMERIS_TYPE":"0","EPOCH":"2022-02-11T22:00:01.999584","MEAN_ANOMALY":"267.4814","ECCENTRICITY":"0.00039730","PERIAPSIS":"356.886","OBJECT_NAME":"STARLINK-3103"}];
